{
    "week": 294,
    "satellites": [
        {
            "Name": "COSMOS 2433 (720)",
            "Line1": "1 32275U 07052A   24331.11310662 -.00000041  00000+0  00000+0 0  9990",
            "Line2": "2 32275  65.8704 334.9854 0005793 252.7817 107.1902  2.13104162132997",
            "SatelliteNumber": "32275",
            "Classification": "U",
            "LaunchYear": "07",
            "LaunchNumber": "052",
            "PieceOfLaunch": "A",
            "EpochYear": "24",
            "EpochDay": 331.11310662,
            "FirstDerivativeMeanMotion": -4.1e-07,
            "SecondDerivativeMeanMotion": "00000+0",
            "BSTAR": "00000+0",
            "SetNumber": "999",
            "Inclination": 65.8704,
            "RAAN": 334.9854,
            "Eccentricity": 0.0005793,
            "ArgumentOfPerigee": 252.7817,
            "MeanAnomaly": 107.1902,
            "MeanMotion": 2.13104162,
            "RevolutionNumber": "13299"
        },
        {
            "Name": "COSMOS 2432 (719)",
            "Line1": "1 32276U 07052B   24330.70257898 -.00000042  00000+0  00000+0 0  9997",
            "Line2": "2 32276  65.8858 335.1159 0011343 310.7926  39.9423  2.13103298132970",
            "SatelliteNumber": "32276",
            "Classification": "U",
            "LaunchYear": "07",
            "LaunchNumber": "052",
            "PieceOfLaunch": "B",
            "EpochYear": "24",
            "EpochDay": 330.70257898,
            "FirstDerivativeMeanMotion": -4.2e-07,
            "SecondDerivativeMeanMotion": "00000+0",
            "BSTAR": "00000+0",
            "SetNumber": "999",
            "Inclination": 65.8858,
            "RAAN": 335.1159,
            "Eccentricity": 0.0011343,
            "ArgumentOfPerigee": 310.7926,
            "MeanAnomaly": 39.9423,
            "MeanMotion": 2.13103298,
            "RevolutionNumber": "13297"
        },
        {
            "Name": "COSMOS 2434 (721)",
            "Line1": "1 32393U 07065A   24331.41311870  .00000038  00000+0  00000+0 0  9995",
            "Line2": "2 32393  64.3153 211.0838 0003991  70.4940  51.6472  2.13101407131709",
            "SatelliteNumber": "32393",
            "Classification": "U",
            "LaunchYear": "07",
            "LaunchNumber": "065",
            "PieceOfLaunch": "A",
            "EpochYear": "24",
            "EpochDay": 331.4131187,
            "FirstDerivativeMeanMotion": 3.8e-07,
            "SecondDerivativeMeanMotion": "00000+0",
            "BSTAR": "00000+0",
            "SetNumber": "999",
            "Inclination": 64.3153,
            "RAAN": 211.0838,
            "Eccentricity": 0.0003991,
            "ArgumentOfPerigee": 70.494,
            "MeanAnomaly": 51.6472,
            "MeanMotion": 2.13101407,
            "RevolutionNumber": "13170"
        },
        {
            "Name": "COSMOS 2436 (723)",
            "Line1": "1 32395U 07065C   24331.34213830  .00000037  00000+0  00000+0 0  9995",
            "Line2": "2 32395  64.3238 211.1524 0017309   6.4234 195.9745  2.13100152131634",
            "SatelliteNumber": "32395",
            "Classification": "U",
            "LaunchYear": "07",
            "LaunchNumber": "065",
            "PieceOfLaunch": "C",
            "EpochYear": "24",
            "EpochDay": 331.3421383,
            "FirstDerivativeMeanMotion": 3.7e-07,
            "SecondDerivativeMeanMotion": "00000+0",
            "BSTAR": "00000+0",
            "SetNumber": "999",
            "Inclination": 64.3238,
            "RAAN": 211.1524,
            "Eccentricity": 0.0017309,
            "ArgumentOfPerigee": 6.4234,
            "MeanAnomaly": 195.9745,
            "MeanMotion": 2.13100152,
            "RevolutionNumber": "13163"
        },
        {
            "Name": "COSMOS 2456 (730)",
            "Line1": "1 36111U 09070A   24331.58672120 -.00000006  00000+0  00000+0 0  9997",
            "Line2": "2 36111  64.6925  90.3866 0002157 300.2933 109.6169  2.13103668116373",
            "SatelliteNumber": "36111",
            "Classification": "U",
            "LaunchYear": "09",
            "LaunchNumber": "070",
            "PieceOfLaunch": "A",
            "EpochYear": "24",
            "EpochDay": 331.5867212,
            "FirstDerivativeMeanMotion": -6e-08,
            "SecondDerivativeMeanMotion": "00000+0",
            "BSTAR": "00000+0",
            "SetNumber": "999",
            "Inclination": 64.6925,
            "RAAN": 90.3866,
            "Eccentricity": 0.0002157,
            "ArgumentOfPerigee": 300.2933,
            "MeanAnomaly": 109.6169,
            "MeanMotion": 2.13103668,
            "RevolutionNumber": "11637"
        },
        {
            "Name": "COSMOS 2457 (733)",
            "Line1": "1 36112U 09070B   24331.37995538 -.00000005  00000+0  00000+0 0  9995",
            "Line2": "2 36112  64.6771  90.2488 0005696 154.6697 229.2565  2.13101103116372",
            "SatelliteNumber": "36112",
            "Classification": "U",
            "LaunchYear": "09",
            "LaunchNumber": "070",
            "PieceOfLaunch": "B",
            "EpochYear": "24",
            "EpochDay": 331.37995538,
            "FirstDerivativeMeanMotion": -5e-08,
            "SecondDerivativeMeanMotion": "00000+0",
            "BSTAR": "00000+0",
            "SetNumber": "999",
            "Inclination": 64.6771,
            "RAAN": 90.2488,
            "Eccentricity": 0.0005696,
            "ArgumentOfPerigee": 154.6697,
            "MeanAnomaly": 229.2565,
            "MeanMotion": 2.13101103,
            "RevolutionNumber": "11637"
        },
        {
            "Name": "COSMOS 2460 (732)",
            "Line1": "1 36402U 10007C   24330.93527264 -.00000041  00000+0  00000+0 0  9997",
            "Line2": "2 36402  65.7236 333.6284 0002985 267.7202 129.0627  2.13106332114627",
            "SatelliteNumber": "36402",
            "Classification": "U",
            "LaunchYear": "10",
            "LaunchNumber": "007",
            "PieceOfLaunch": "C",
            "EpochYear": "24",
            "EpochDay": 330.93527264,
            "FirstDerivativeMeanMotion": -4.1e-07,
            "SecondDerivativeMeanMotion": "00000+0",
            "BSTAR": "00000+0",
            "SetNumber": "999",
            "Inclination": 65.7236,
            "RAAN": 333.6284,
            "Eccentricity": 0.0002985,
            "ArgumentOfPerigee": 267.7202,
            "MeanAnomaly": 129.0627,
            "MeanMotion": 2.13106332,
            "RevolutionNumber": "11462"
        },
        {
            "Name": "COSMOS 2476 (744)",
            "Line1": "1 37867U 11064A   24331.17306557  .00000001  00000+0  00000+0 0  9999",
            "Line2": "2 37867  64.9623  92.0957 0023034 232.0196 132.0700  2.13101575101718",
            "SatelliteNumber": "37867",
            "Classification": "U",
            "LaunchYear": "11",
            "LaunchNumber": "064",
            "PieceOfLaunch": "A",
            "EpochYear": "24",
            "EpochDay": 331.17306557,
            "FirstDerivativeMeanMotion": 1e-08,
            "SecondDerivativeMeanMotion": "00000+0",
            "BSTAR": "00000+0",
            "SetNumber": "999",
            "Inclination": 64.9623,
            "RAAN": 92.0957,
            "Eccentricity": 0.0023034,
            "ArgumentOfPerigee": 232.0196,
            "MeanAnomaly": 132.07,
            "MeanMotion": 2.13101575,
            "RevolutionNumber": "10171"
        },
        {
            "Name": "COSMOS 2477 (745)",
            "Line1": "1 37868U 11064B   24330.70257898  .00000005  00000+0  00000+0 0  9995",
            "Line2": "2 37868  64.9690  92.1857 0020154 232.3446 309.7358  2.13102990101639",
            "SatelliteNumber": "37868",
            "Classification": "U",
            "LaunchYear": "11",
            "LaunchNumber": "064",
            "PieceOfLaunch": "B",
            "EpochYear": "24",
            "EpochDay": 330.70257898,
            "FirstDerivativeMeanMotion": 5e-08,
            "SecondDerivativeMeanMotion": "00000+0",
            "BSTAR": "00000+0",
            "SetNumber": "999",
            "Inclination": 64.969,
            "RAAN": 92.1857,
            "Eccentricity": 0.0020154,
            "ArgumentOfPerigee": 232.3446,
            "MeanAnomaly": 309.7358,
            "MeanMotion": 2.1310299,
            "RevolutionNumber": "10163"
        },
        {
            "Name": "COSMOS 2475 (743)",
            "Line1": "1 37869U 11064C   24331.45112965  .00000000  00000+0  00000+0 0  9999",
            "Line2": "2 37869  64.9764  92.1768 0024678 248.3027 105.7219  2.13101670101667",
            "SatelliteNumber": "37869",
            "Classification": "U",
            "LaunchYear": "11",
            "LaunchNumber": "064",
            "PieceOfLaunch": "C",
            "EpochYear": "24",
            "EpochDay": 331.45112965,
            "FirstDerivativeMeanMotion": 0.0,
            "SecondDerivativeMeanMotion": "00000+0",
            "BSTAR": "00000+0",
            "SetNumber": "999",
            "Inclination": 64.9764,
            "RAAN": 92.1768,
            "Eccentricity": 0.0024678,
            "ArgumentOfPerigee": 248.3027,
            "MeanAnomaly": 105.7219,
            "MeanMotion": 2.1310167,
            "RevolutionNumber": "10166"
        }
    ]
}